QIANFAN-41              
1 62242U 24232F   25334.83766422  .00000122  00000+0  16978-3 0  9992
2 62242  89.0037  42.3968 0013121 218.3422 141.6798 13.50974645 97643
QIANFAN-42              
1 62243U 24232G   25334.83095738  .00000500  00000+0  20924-3 0  9994
2 62243  89.0027  38.7163 0017166 120.6688 239.6199 14.24470455 99671
QIANFAN-43              
1 62244U 24232H   25334.83348912  .00000136  00000+0  19288-3 0  9996
2 62244  89.0041  42.4620 0014468 224.6842 135.3144 13.50973570 66251
QIANFAN-44              
1 62245U 24232J   25334.82122459  .00000133  00000+0  18813-3 0  9992
2 62245  89.0040  42.2742 0012773 220.6593 139.3605 13.50975918 97720
QIANFAN-45              
1 62246U 24232K   25334.86232611  .00000100  00000+0  13688-3 0  9998
2 62246  89.0043  42.4161 0013438 220.5639 139.4512 13.50975427 97655
QIANFAN-46              
1 62247U 24232L   25334.88704661  .00000133  00000+0  18736-3 0  9995
2 62247  89.0039  42.4831 0013327 226.4110 133.5936 13.50977923 97615
QIANFAN-47              
1 62248U 24232M   25334.81709139  .00000149  00000+0  21158-3 0  9993
2 62248  89.0035  42.4236 0013777 225.9145 134.0873 13.50974018 97632
QIANFAN-48              
1 62249U 24232N   25334.85411890  .00000146  00000+0  20746-3 0  9991
2 62249  89.0039  42.4213 0015948 229.4763 130.5000 13.50975785 97645
